STARLINK-3821           
1 52357U 22045AC  26068.68156905 -.00000206  00000+0  51385-5 0  9992
2 52357  53.2184 199.1592 0001362  88.9392 271.1756 15.08837718215784
DISKSAT D               
1 67221U 25305C   26068.55257179  .00011599  00000+0  76841-3 0  9999
2 67221  45.0023 251.6339 0003712 319.2749  40.7848 15.07416577 12277
